,ori,county,name,region,lat,lon,"lat,lon"
0,TX0152200,COMAL; GUADALUPE; BEXAR,Selma Police Department,South,29.448671,-98.520147,"29.448671,-98.520147"
1,TX0153500,BEXAR,Independent School District: East Central,South,29.448671,-98.520147,"29.448671,-98.520147"
2,TX0151100,BEXAR,Olmos Park Police Department,South,29.471867,-98.4906,"29.471867,-98.4906"
3,TX0150000,BEXAR,Bexar County Sheriff's Office,South,29.429178,-98.50717,"29.429178,-98.50717"
4,TX0151300,BEXAR,Terrell Hills Police Department,South,29.474962,-98.45926,"29.474962,-98.45926"
5,TX0940200,COMAL; BEXAR; GUADALUPE,Schertz Police Department,South,29.583532,-97.948858,"29.583532,-97.948858"
6,TX0150200,BEXAR,Balcones Heights Police Department,South,29.490864,-98.55476,"29.490864,-98.55476"
7,TX0153900,COMAL; KENDALL; BEXAR,Fair Oaks Ranch Police Department,South,29.731081,-98.62902,"29.731081,-98.62902"
8,TX0151500,BEXAR,Windcrest Police Department,South,29.516685,-98.38106,"29.516685,-98.38106"
9,TX0150700,BEXAR,Hill Country Village Police Department,South,29.448671,-98.520147,"29.448671,-98.520147"
10,TX0150900,BEXAR,Kirby Police Department,South,29.467829,-98.38129,"29.467829,-98.38129"
11,TX0070100,BEXAR; MEDINA; ATASCOSA,Lytle Police Department,South,28.891397,-98.535381,"28.891397,-98.535381"
12,TX0152000,BEXAR,Independent School District: Judson,South,29.448671,-98.520147,"29.448671,-98.520147"
13,TX0151000,BEXAR,Leon Valley Police Department,South,29.49208,-98.61705,"29.49208,-98.61705"
14,TX0152100,BEXAR,Alamo Community College District,South,29.448671,-98.520147,"29.448671,-98.520147"
15,TX0151200,BEXAR,Shavano Park Police Department,South,29.448671,-98.520147,"29.448671,-98.520147"
16,TX0150100,BEXAR,Alamo Heights Police Department,South,29.448671,-98.520147,"29.448671,-98.520147"
17,TX0152300,BEXAR,Somerset Police Department,South,29.448671,-98.520147,"29.448671,-98.520147"
18,TX0151400,BEXAR,Universal City Police Department,South,29.560911,-98.31195,"29.560911,-98.31195"
19,TX0150300,BEXAR,Castle Hills Police Department,South,29.521662,-98.52122,"29.521662,-98.52122"
20,TX0151600,BEXAR,Live Oak Police Department,South,29.553207,-98.33037,"29.553207,-98.33037"
21,TX0150500,BEXAR,Converse Police Department,South,29.52298,-98.309975,"29.52298,-98.309975"
22,TX0153800,BEXAR,Independent School District: North East,South,29.522142,-98.45817,"29.522142,-98.45817"
23,TXSPD0000,MEDINA; BEXAR,San Antonio Police Department,South,29.42295,-98.49757,"29.42295,-98.49757"
24,TX0157000,BEXAR,Texas A&M University: San Antonio,South,29.330168,-98.545944,"29.330168,-98.545944"
25,TX0151700,BEXAR,"University of Texas: Health Science Center, San Antonio",South,29.513067,-98.57758,"29.513067,-98.57758"
26,TX0151900,BEXAR,University of Texas: San Antonio,South,29.448671,-98.520147,"29.448671,-98.520147"
27,TX0150800,BEXAR,Hollywood Park Police Department,South,29.592808,-98.473564,"29.592808,-98.473564"
28,TX0153000,BEXAR,Helotes Police Department,South,29.448671,-98.520147,"29.448671,-98.520147"
29,TX0210200,BRAZOS,College Station Police Department,South,30.656725,-96.302389,"30.656725,-96.302389"
30,TX0210000,BRAZOS,Brazos County Sheriff's Office,South,30.687794,-96.3732,"30.687794,-96.3732"
31,TX0210400,BRAZOS,Texas A&M University: College Station,South,30.656725,-96.302389,"30.656725,-96.302389"
32,TX0210100,BRAZOS,Bryan Police Department,South,30.656725,-96.302389,"30.656725,-96.302389"
33,TX0575000,DALLAS,Hospital District: Dallas County,South,32.812763,-96.838455,"32.812763,-96.838455"
34,TX0570800,DALLAS,Desoto Police Department,South,32.766987,-96.778424,"32.766987,-96.778424"
35,TX0572800,DALLAS,University of Texas: Dallas,South,32.766987,-96.778424,"32.766987,-96.778424"
36,TX0570400,COLLIN; DALLAS; DENTON,Carrollton Police Department,South,32.766987,-96.778424,"32.766987,-96.778424"
37,TX0571500,DALLAS,Irving Police Department,South,32.815025,-96.94995,"32.815025,-96.94995"
38,TX0570600,DALLAS,Cockrell Hill Police Department,South,32.766987,-96.778424,"32.766987,-96.778424"
39,TX0571700,DALLAS,Lancaster Police Department,South,32.766987,-96.778424,"32.766987,-96.778424"
40,TX0572400,DALLAS,University Park Police Department,South,32.845383,-96.797325,"32.845383,-96.797325"
41,TX0570000,DALLAS,Dallas County Sheriff's Office,South,32.766987,-96.778424,"32.766987,-96.778424"
42,TX0571100,ROCKWALL; COLLIN; DALLAS,Garland Police Department,South,32.908943,-96.65579,"32.908943,-96.65579"
43,TX0572600,DALLAS,University of Texas: Southwestern Medical School,South,32.81252,-96.838135,"32.81252,-96.838135"
44,TX0570200,DALLAS,Balch Springs Police Department,South,32.719345,-96.61623,"32.719345,-96.61623"
45,TX0571300,DALLAS,Highland Park Police Department,South,32.8289,-96.79652,"32.8289,-96.79652"
46,TX0572000,COLLIN; DALLAS,Richardson Police Department,South,32.766987,-96.778424,"32.766987,-96.778424"
47,TX0576800,DALLAS,Independent School District: Cedar Hill,South,32.588375,-96.95975,"32.588375,-96.95975"
48,TX0572200,KAUFMAN; DALLAS,Seagoville Police Department,South,32.64949,-96.54345,"32.64949,-96.54345"
49,TX0573300,ROCKWALL; DALLAS,Rowlett Police Department,South,32.766987,-96.778424,"32.766987,-96.778424"
50,TX0575500,DALLAS; ELLIS,Ovilla Police Department,South,32.527256,-96.88891,"32.527256,-96.88891"
51,TX0570900,DALLAS,Duncanville Police Department,South,32.766987,-96.778424,"32.766987,-96.778424"
52,TX0700200,DALLAS; ELLIS,Ferris Police Department,South,32.534283,-96.666824,"32.534283,-96.666824"
53,TX0430800,DALLAS; ROCKWALL; COLLIN,Wylie Police Department,South,33.02303,-96.51876,"33.02303,-96.51876"
54,TX0570500,ELLIS; DALLAS,Cedar Hill Police Department,South,32.766987,-96.778424,"32.766987,-96.778424"
55,TX0610600,DALLAS; DENTON,Lewisville Police Department,South,33.205005,-97.119046,"33.205005,-97.119046"
56,TX0570700,DENTON; DALLAS,Coppell Police Department,South,32.97545,-96.99245,"32.97545,-96.99245"
57,TX0571800,KAUFMAN; DALLAS,Mesquite Police Department,South,32.766987,-96.778424,"32.766987,-96.778424"
58,TX0574700,ELLIS; DALLAS,Glenn Heights Police Department,South,32.564953,-96.84331,"32.564953,-96.84331"
59,TX0570100,DALLAS,Addison Police Department,South,32.766987,-96.778424,"32.766987,-96.778424"
60,TX0571200,ELLIS; TARRANT; DALLAS,Grand Prairie Police Department,South,32.766987,-96.778424,"32.766987,-96.778424"
61,TX0571400,DALLAS,Hutchins Police Department,South,32.766987,-96.778424,"32.766987,-96.778424"
62,TX0572500,DALLAS,Wilmer Police Department,South,32.5892,-96.68492,"32.5892,-96.68492"
63,TXDPD0000,DENTON; COLLIN; DALLAS,Dallas Police Department,South,32.76778,-96.7956,"32.76778,-96.7956"
64,TX0571000,DALLAS,Farmers Branch Police Department,South,32.924255,-96.85554,"32.924255,-96.85554"
65,TX0572100,COLLIN; DALLAS,Sachse Police Department,South,32.973286,-96.58616,"32.973286,-96.58616"
66,TX1550800,LIMESTONE; MCLENNAN,Mart Police Department,South,31.549493,-97.201472,"31.549493,-97.201472"
67,TX1550600,MCLENNAN,Lorena Police Department,South,31.549493,-97.201472,"31.549493,-97.201472"
68,TX1551700,MCLENNAN,Riesel Police Department,South,31.549493,-97.201472,"31.549493,-97.201472"
69,TX1550000,MCLENNAN,McLennan County Sheriff's Office,South,31.55447,-97.1364,"31.55447,-97.1364"
70,TX1551100,MCLENNAN,Robinson Police Department,South,31.468706,-97.11562,"31.468706,-97.11562"
71,TX1552600,FALLS; MCLENNAN,Bruceville-Eddy Police Department,South,31.306688,-97.24659,"31.306688,-97.24659"
72,TX1550400,MCLENNAN,Hewitt Police Department,South,31.549493,-97.201472,"31.549493,-97.201472"
73,TX1550200,MCLENNAN,Beverly Hills Police Department,South,31.525549,-97.1494,"31.525549,-97.1494"
74,TX1551300,MCLENNAN,West Police Department,South,31.549493,-97.201472,"31.549493,-97.201472"
75,TX1550700,MCLENNAN,McGregor Police Department,South,31.4415,-97.40726,"31.4415,-97.40726"
76,TX1551800,MCLENNAN,Texas State Technical College: Waco,South,31.549493,-97.201472,"31.549493,-97.201472"
77,TX1550500,MCLENNAN,Lacy-Lakeview Police Department,South,31.62393,-97.10311,"31.62393,-97.10311"
78,TX1551600,MCLENNAN,McLennan Community College,South,31.591955,-97.17414,"31.591955,-97.17414"
79,TX0180200,MCLENNAN; BOSQUE,Valley Mills Police Department,South,31.900764,-97.637632,"31.900764,-97.637632"
80,TX1551400,MCLENNAN,Woodway Police Department,South,31.506077,-97.22793,"31.506077,-97.22793"
81,TX1550100,MCLENNAN,Bellmead Police Department,South,31.589613,-97.10078,"31.589613,-97.10078"
82,TX1551200,MCLENNAN,Waco Police Department,South,31.549493,-97.201472,"31.549493,-97.201472"
